[{"OBJECT_NAME":"JILIN-1 GAOFEN 03D48","OBJECT_ID":"2022-167P","EPOCH":"2026-03-09T23:48:37.804608","MEAN_MOTION":15.32947339,"ECCENTRICITY":0.00075954,"INCLINATION":97.6781,"RA_OF_ASC_NODE":234.4968,"ARG_OF_PERICENTER":111.3084,"MEAN_ANOMALY":248.8969,"EPHEMERIS_TYPE":0,"CLASSIFICATION_TYPE":"U","NORAD_CAT_ID":54695,"ELEMENT_SET_NO":999,"REV_AT_EPOCH":18018,"BSTAR":0.00049677114,"MEAN_MOTION_DOT":0.00015755,"MEAN_MOTION_DDOT":0},{"OBJECT_NAME":"STARLINK-34067","OBJECT_ID":"2025-110V","EPOCH":"2026-03-09T06:51:10.964448","MEAN_MOTION":15.30210376,"ECCENTRICITY":0.0001093,"INCLINATION":53.1615,"RA_OF_ASC_NODE":28.4207,"ARG_OF_PERICENTER":92.617,"MEAN_ANOMALY":267.4956,"EPHEMERIS_TYPE":0,"CLASSIFICATION_TYPE":"U","NORAD_CAT_ID":64115,"ELEMENT_SET_NO":999,"REV_AT_EPOCH":4582,"BSTAR":0.00070253357,"MEAN_MOTION_DOT":0.00020512,"MEAN_MOTION_DDOT":0}]
